{
  "type": "FeatureCollection",
  "features": [
    {
      "type": "Feature",
      "properties": {
        "norad_id": 19071,
        "name": "OSCAR 32",
        "group": "nnss",
        "lat": 62.30735314804704,
        "lon": 16.113261644951226,
        "alt_km": 1137.1430370186636,
        "timestamp": "2025-12-19T04:59:48.574757+00:00",
        "meta_object_name": "OSCAR 32",
        "meta_object_id": "1988-033B",
        "meta_epoch": "2025-12-18T23:34:54.805728",
        "meta_mean_motion": 13.27954975,
        "meta_eccentricity": 0.01888304,
        "meta_inclination": 90.3211,
        "meta_ra_of_asc_node": 16.7184,
        "meta_arg_of_pericenter": 149.4873,
        "meta_mean_anomaly": 277.0372,
        "meta_ephemeris_type": 0,
        "meta_classification_type": "U",
        "meta_norad_cat_id": 19071,
        "meta_element_set_no": 999,
        "meta_rev_at_epoch": 82348,
        "meta_bstar": 0.00017255044,
        "meta_mean_motion_dot": 9.5e-07,
        "meta_mean_motion_ddot": 0,
        "tle_line1": "1 19071U 88033B   25352.98257877  .00000095  00000+0  17255-3 0  9996",
        "tle_line2": "2 19071  90.3211  16.7184 0188830 149.4873 277.0372 13.27954975823482"
      },
      "geometry": {
        "type": "Point",
        "coordinates": [
          16.113261644951226,
          62.30735314804704
        ]
      }
    },
    {
      "type": "Feature",
      "properties": {
        "norad_id": 19223,
        "name": "NOVA 2",
        "group": "nnss",
        "lat": 34.66562202052991,
        "lon": -101.74440272806523,
        "alt_km": 1190.0800113364685,
        "timestamp": "2025-12-19T04:59:48.574767+00:00",
        "meta_object_name": "NOVA 2",
        "meta_object_id": "1988-052A",
        "meta_epoch": "2025-12-18T19:46:28.243200",
        "meta_mean_motion": 13.22936403,
        "meta_eccentricity": 0.00300711,
        "meta_inclination": 89.9871,
        "meta_ra_of_asc_node": 78.265,
        "meta_arg_of_pericenter": 0.1721,
        "meta_mean_anomaly": 115.861,
        "meta_ephemeris_type": 0,
        "meta_classification_type": "U",
        "meta_norad_cat_id": 19223,
        "meta_element_set_no": 999,
        "meta_rev_at_epoch": 81028,
        "meta_bstar": 0.00013396431,
        "meta_mean_motion_dot": 6.5e-07,
        "meta_mean_motion_ddot": 0,
        "tle_line1": "1 19223U 88052A   25352.82393800  .00000065  00000+0  13396-3 0  9995",
        "tle_line2": "2 19223  89.9871  78.2650 0030071   0.1721 115.8610 13.22936403810285"
      },
      "geometry": {
        "type": "Point",
        "coordinates": [
          -101.74440272806523,
          34.66562202052991
        ]
      }
    },
    {
      "type": "Feature",
      "properties": {
        "norad_id": 19419,
        "name": "OSCAR 25",
        "group": "nnss",
        "lat": -39.93207299487552,
        "lon": 20.29408163701617,
        "alt_km": 1109.1286029890225,
        "timestamp": "2025-12-19T04:59:48.574777+00:00",
        "meta_object_name": "OSCAR 25",
        "meta_object_id": "1988-074A",
        "meta_epoch": "2025-12-18T13:56:01.747392",
        "meta_mean_motion": 13.42624451,
        "meta_eccentricity": 0.0094746,
        "meta_inclination": 90.0342,
        "meta_ra_of_asc_node": 20.2633,
        "meta_arg_of_pericenter": 228.9225,
        "meta_mean_anomaly": 298.3513,
        "meta_ephemeris_type": 0,
        "meta_classification_type": "U",
        "meta_norad_cat_id": 19419,
        "meta_element_set_no": 999,
        "meta_rev_at_epoch": 82718,
        "meta_bstar": 0.00017289494,
        "meta_mean_motion_dot": 1.09e-06,
        "meta_mean_motion_ddot": 0,
        "tle_line1": "1 19419U 88074A   25352.58057578  .00000109  00000+0  17289-3 0  9992",
        "tle_line2": "2 19419  90.0342  20.2633 0094746 228.9225 298.3513 13.42624451827189"
      },
      "geometry": {
        "type": "Point",
        "coordinates": [
          20.29408163701617,
          -39.93207299487552
        ]
      }
    },
    {
      "type": "Feature",
      "properties": {
        "norad_id": 19420,
        "name": "OSCAR 31",
        "group": "nnss",
        "lat": -21.69995892901085,
        "lon": -159.39780062924336,
        "alt_km": 1039.3274900574816,
        "timestamp": "2025-12-19T04:59:48.574788+00:00",
        "meta_object_name": "OSCAR 31",
        "meta_object_id": "1988-074B",
        "meta_epoch": "2025-12-18T16:03:55.304640",
        "meta_mean_motion": 13.42585606,
        "meta_eccentricity": 0.00931045,
        "meta_inclination": 90.0357,
        "meta_ra_of_asc_node": 20.6145,
        "meta_arg_of_pericenter": 222.7988,
        "meta_mean_anomaly": 256.4452,
        "meta_ephemeris_type": 0,
        "meta_classification_type": "U",
        "meta_norad_cat_id": 19420,
        "meta_element_set_no": 999,
        "meta_rev_at_epoch": 82730,
        "meta_bstar": 0.00014634403,
        "meta_mean_motion_dot": 9.4e-07,
        "meta_mean_motion_ddot": 0,
        "tle_line1": "1 19420U 88074B   25352.66939010  .00000094  00000+0  14634-3 0  9997",
        "tle_line2": "2 19420  90.0357  20.6145 0093104 222.7988 256.4452 13.42585606827303"
      },
      "geometry": {
        "type": "Point",
        "coordinates": [
          -159.39780062924336,
          -21.69995892901085
        ]
      }
    }
  ]
}